ISS (ZARYA)             
1 25544U 98067A   25341.18792727  .00013419  00000+0  24796-3 0  9996
2 25544  51.6302 169.9669 0003495 214.2568 145.8196 15.49384117541999
CSS (TIANHE)            
1 48274U 21035A   25341.26953398  .00028044  00000+0  35478-3 0  9993
2 48274  41.4682  49.9091 0009358 347.3920  12.6683 15.58832972263172
ISS (NAUKA)             
1 49044U 21066A   25341.18792727  .00013419  00000+0  24796-3 0  9992
2 49044  51.6302 169.9669 0003495 214.2568 145.8196 15.49384117230445
FREGAT DEB              
1 49271U 11037PF  25341.06543972  .00006260  00000+0  14052-1 0  9992
2 49271  51.6295 216.2064 0866168 211.4312 143.1892 12.34393959201237
CSS (WENTIAN)           
1 53239U 22085A   25341.26953398  .00028044  00000+0  35478-3 0  9996
2 53239  41.4682  49.9091 0009358 347.3920  12.6683 15.58832972173843
CSS (MENGTIAN)          
1 54216U 22143A   25341.26953398  .00028044  00000+0  35478-3 0  9997
2 54216  41.4682  49.9091 0009358 347.3920  12.6683 15.58832972158640
SOYUZ-MS 27             
1 63520U 25072A   25341.18792727  .00013419  00000+0  24796-3 0  9998
2 63520  51.6302 169.9669 0003495 214.2568 145.8196 15.49384117 20201
SHENZHOU-20 (SZ-20)     
1 63632U 25082A   25341.26953398  .00028044  00000+0  35478-3 0  9994
2 63632  41.4682  49.9091 0009358 347.3920  12.6683 15.58832972255303
PROGRESS-MS 31          
1 64751U 25146A   25341.18792727  .00013419  00000+0  24796-3 0  9997
2 64751  51.6302 169.9669 0003495 214.2568 145.8196 15.49384117  6752
TIANZHOU-9              
1 64786U 25149A   25341.26953398  .00028044  00000+0  35478-3 0  9999
2 64786  41.4682  49.9091 0009358 347.3920  12.6683 15.58832972255304
CREW DRAGON 11          
1 65077U 25166A   25341.18792727  .00013419  00000+0  24796-3 0  9991
2 65077  51.6302 169.9669 0003495 214.2568 145.8196 15.49384117  2143
DRAGON CRS-33           
1 65304U 25186A   25341.18792727  .00013419  00000+0  24796-3 0  9996
2 65304  51.6302 169.9669 0003495 214.2568 145.8196 15.49384117   111
