CCSDS_OMM_VERS = 2.0
CREATION_DATE  = 
ORIGINATOR     = 

OBJECT_NAME    = ISS (ZARYA)
OBJECT_ID      = 1998-067A
CENTER_NAME    = EARTH
REF_FRAME      = TEME
TIME_SYSTEM    = UTC
MEAN_ELEMENT_THEORY = SGP/SGP4

EPOCH          = 2025-12-07T04:30:36.916128
MEAN_MOTION    = 15.49384117
ECCENTRICITY   = .00034959
INCLINATION    = 51.6302
RA_OF_ASC_NODE = 169.9669
ARG_OF_PERICENTER = 214.2568
MEAN_ANOMALY   = 145.8196

EPHEMERIS_TYPE = 0
CLASSIFICATION_TYPE = U
NORAD_CAT_ID   = 25544
ELEMENT_SET_NO = 999
REV_AT_EPOCH   = 54199
BSTAR          = .24795554E-3
MEAN_MOTION_DOT = .13419E-3
MEAN_MOTION_DDOT = 0

CCSDS_OMM_VERS = 2.0
CREATION_DATE  = 
ORIGINATOR     = 

OBJECT_NAME    = CSS (TIANHE)
OBJECT_ID      = 2021-035A
CENTER_NAME    = EARTH
REF_FRAME      = TEME
TIME_SYSTEM    = UTC
MEAN_ELEMENT_THEORY = SGP/SGP4

EPOCH          = 2025-12-07T06:28:07.735872
MEAN_MOTION    = 15.58832972
ECCENTRICITY   = .00093583
INCLINATION    = 41.4682
RA_OF_ASC_NODE = 49.9091
ARG_OF_PERICENTER = 347.3920
MEAN_ANOMALY   = 12.6683

EPHEMERIS_TYPE = 0
CLASSIFICATION_TYPE = U
NORAD_CAT_ID   = 48274
ELEMENT_SET_NO = 999
REV_AT_EPOCH   = 26317
BSTAR          = .3547841E-3
MEAN_MOTION_DOT = .28044E-3
MEAN_MOTION_DDOT = 0

CCSDS_OMM_VERS = 2.0
CREATION_DATE  = 
ORIGINATOR     = 

OBJECT_NAME    = ISS (NAUKA)
OBJECT_ID      = 2021-066A
CENTER_NAME    = EARTH
REF_FRAME      = TEME
TIME_SYSTEM    = UTC
MEAN_ELEMENT_THEORY = SGP/SGP4

EPOCH          = 2025-12-07T04:30:36.916128
MEAN_MOTION    = 15.49384117
ECCENTRICITY   = .00034959
INCLINATION    = 51.6302
RA_OF_ASC_NODE = 169.9669
ARG_OF_PERICENTER = 214.2568
MEAN_ANOMALY   = 145.8196

EPHEMERIS_TYPE = 0
CLASSIFICATION_TYPE = U
NORAD_CAT_ID   = 49044
ELEMENT_SET_NO = 999
REV_AT_EPOCH   = 23044
BSTAR          = .24795554E-3
MEAN_MOTION_DOT = .13419E-3
MEAN_MOTION_DDOT = 0

CCSDS_OMM_VERS = 2.0
CREATION_DATE  = 
ORIGINATOR     = 

OBJECT_NAME    = FREGAT DEB
OBJECT_ID      = 2011-037PF
CENTER_NAME    = EARTH
REF_FRAME      = TEME
TIME_SYSTEM    = UTC
MEAN_ELEMENT_THEORY = SGP/SGP4

EPOCH          = 2025-12-07T01:34:13.991808
MEAN_MOTION    = 12.34393959
ECCENTRICITY   = .08661681
INCLINATION    = 51.6295
RA_OF_ASC_NODE = 216.2064
ARG_OF_PERICENTER = 211.4312
MEAN_ANOMALY   = 143.1892

EPHEMERIS_TYPE = 0
CLASSIFICATION_TYPE = U
NORAD_CAT_ID   = 49271
ELEMENT_SET_NO = 999
REV_AT_EPOCH   = 20123
BSTAR          = .14051974E-1
MEAN_MOTION_DOT = .626E-4
MEAN_MOTION_DDOT = 0

CCSDS_OMM_VERS = 2.0
CREATION_DATE  = 
ORIGINATOR     = 

OBJECT_NAME    = CSS (WENTIAN)
OBJECT_ID      = 2022-085A
CENTER_NAME    = EARTH
REF_FRAME      = TEME
TIME_SYSTEM    = UTC
MEAN_ELEMENT_THEORY = SGP/SGP4

EPOCH          = 2025-12-07T06:28:07.735872
MEAN_MOTION    = 15.58832972
ECCENTRICITY   = .00093583
INCLINATION    = 41.4682
RA_OF_ASC_NODE = 49.9091
ARG_OF_PERICENTER = 347.3920
MEAN_ANOMALY   = 12.6683

EPHEMERIS_TYPE = 0
CLASSIFICATION_TYPE = U
NORAD_CAT_ID   = 53239
ELEMENT_SET_NO = 999
REV_AT_EPOCH   = 17384
BSTAR          = .3547841E-3
MEAN_MOTION_DOT = .28044E-3
MEAN_MOTION_DDOT = 0

CCSDS_OMM_VERS = 2.0
CREATION_DATE  = 
ORIGINATOR     = 

OBJECT_NAME    = CSS (MENGTIAN)
OBJECT_ID      = 2022-143A
CENTER_NAME    = EARTH
REF_FRAME      = TEME
TIME_SYSTEM    = UTC
MEAN_ELEMENT_THEORY = SGP/SGP4

EPOCH          = 2025-12-07T06:28:07.735872
MEAN_MOTION    = 15.58832972
ECCENTRICITY   = .00093583
INCLINATION    = 41.4682
RA_OF_ASC_NODE = 49.9091
ARG_OF_PERICENTER = 347.3920
MEAN_ANOMALY   = 12.6683

EPHEMERIS_TYPE = 0
CLASSIFICATION_TYPE = U
NORAD_CAT_ID   = 54216
ELEMENT_SET_NO = 999
REV_AT_EPOCH   = 15864
BSTAR          = .3547841E-3
MEAN_MOTION_DOT = .28044E-3
MEAN_MOTION_DDOT = 0

CCSDS_OMM_VERS = 2.0
CREATION_DATE  = 
ORIGINATOR     = 

OBJECT_NAME    = SOYUZ-MS 27
OBJECT_ID      = 2025-072A
CENTER_NAME    = EARTH
REF_FRAME      = TEME
TIME_SYSTEM    = UTC
MEAN_ELEMENT_THEORY = SGP/SGP4

EPOCH          = 2025-12-07T04:30:36.916128
MEAN_MOTION    = 15.49384117
ECCENTRICITY   = .00034959
INCLINATION    = 51.6302
RA_OF_ASC_NODE = 169.9669
ARG_OF_PERICENTER = 214.2568
MEAN_ANOMALY   = 145.8196

EPHEMERIS_TYPE = 0
CLASSIFICATION_TYPE = U
NORAD_CAT_ID   = 63520
ELEMENT_SET_NO = 999
REV_AT_EPOCH   = 2020
BSTAR          = .24795554E-3
MEAN_MOTION_DOT = .13419E-3
MEAN_MOTION_DDOT = 0

CCSDS_OMM_VERS = 2.0
CREATION_DATE  = 
ORIGINATOR     = 

OBJECT_NAME    = SHENZHOU-20 (SZ-20)
OBJECT_ID      = 2025-082A
CENTER_NAME    = EARTH
REF_FRAME      = TEME
TIME_SYSTEM    = UTC
MEAN_ELEMENT_THEORY = SGP/SGP4

EPOCH          = 2025-12-07T06:28:07.735872
MEAN_MOTION    = 15.58832972
ECCENTRICITY   = .00093583
INCLINATION    = 41.4682
RA_OF_ASC_NODE = 49.9091
ARG_OF_PERICENTER = 347.3920
MEAN_ANOMALY   = 12.6683

EPHEMERIS_TYPE = 0
CLASSIFICATION_TYPE = U
NORAD_CAT_ID   = 63632
ELEMENT_SET_NO = 999
REV_AT_EPOCH   = 25530
BSTAR          = .3547841E-3
MEAN_MOTION_DOT = .28044E-3
MEAN_MOTION_DDOT = 0

CCSDS_OMM_VERS = 2.0
CREATION_DATE  = 
ORIGINATOR     = 

OBJECT_NAME    = PROGRESS-MS 31
OBJECT_ID      = 2025-146A
CENTER_NAME    = EARTH
REF_FRAME      = TEME
TIME_SYSTEM    = UTC
MEAN_ELEMENT_THEORY = SGP/SGP4

EPOCH          = 2025-12-07T04:30:36.916128
MEAN_MOTION    = 15.49384117
ECCENTRICITY   = .00034959
INCLINATION    = 51.6302
RA_OF_ASC_NODE = 169.9669
ARG_OF_PERICENTER = 214.2568
MEAN_ANOMALY   = 145.8196

EPHEMERIS_TYPE = 0
CLASSIFICATION_TYPE = U
NORAD_CAT_ID   = 64751
ELEMENT_SET_NO = 999
REV_AT_EPOCH   = 675
BSTAR          = .24795554E-3
MEAN_MOTION_DOT = .13419E-3
MEAN_MOTION_DDOT = 0

CCSDS_OMM_VERS = 2.0
CREATION_DATE  = 
ORIGINATOR     = 

OBJECT_NAME    = TIANZHOU-9
OBJECT_ID      = 2025-149A
CENTER_NAME    = EARTH
REF_FRAME      = TEME
TIME_SYSTEM    = UTC
MEAN_ELEMENT_THEORY = SGP/SGP4

EPOCH          = 2025-12-07T06:28:07.735872
MEAN_MOTION    = 15.58832972
ECCENTRICITY   = .00093583
INCLINATION    = 41.4682
RA_OF_ASC_NODE = 49.9091
ARG_OF_PERICENTER = 347.3920
MEAN_ANOMALY   = 12.6683

EPHEMERIS_TYPE = 0
CLASSIFICATION_TYPE = U
NORAD_CAT_ID   = 64786
ELEMENT_SET_NO = 999
REV_AT_EPOCH   = 25530
BSTAR          = .3547841E-3
MEAN_MOTION_DOT = .28044E-3
MEAN_MOTION_DDOT = 0

CCSDS_OMM_VERS = 2.0
CREATION_DATE  = 
ORIGINATOR     = 

OBJECT_NAME    = CREW DRAGON 11
OBJECT_ID      = 2025-166A
CENTER_NAME    = EARTH
REF_FRAME      = TEME
TIME_SYSTEM    = UTC
MEAN_ELEMENT_THEORY = SGP/SGP4

EPOCH          = 2025-12-07T04:30:36.916128
MEAN_MOTION    = 15.49384117
ECCENTRICITY   = .00034959
INCLINATION    = 51.6302
RA_OF_ASC_NODE = 169.9669
ARG_OF_PERICENTER = 214.2568
MEAN_ANOMALY   = 145.8196

EPHEMERIS_TYPE = 0
CLASSIFICATION_TYPE = U
NORAD_CAT_ID   = 65077
ELEMENT_SET_NO = 999
REV_AT_EPOCH   = 214
BSTAR          = .24795554E-3
MEAN_MOTION_DOT = .13419E-3
MEAN_MOTION_DDOT = 0

CCSDS_OMM_VERS = 2.0
CREATION_DATE  = 
ORIGINATOR     = 

OBJECT_NAME    = DRAGON CRS-33
OBJECT_ID      = 2025-186A
CENTER_NAME    = EARTH
REF_FRAME      = TEME
TIME_SYSTEM    = UTC
MEAN_ELEMENT_THEORY = SGP/SGP4

EPOCH          = 2025-12-07T04:30:36.916128
MEAN_MOTION    = 15.49384117
ECCENTRICITY   = .00034959
INCLINATION    = 51.6302
RA_OF_ASC_NODE = 169.9669
ARG_OF_PERICENTER = 214.2568
MEAN_ANOMALY   = 145.8196

EPHEMERIS_TYPE = 0
CLASSIFICATION_TYPE = U
NORAD_CAT_ID   = 65304
ELEMENT_SET_NO = 999
REV_AT_EPOCH   = 11
BSTAR          = .24795554E-3
MEAN_MOTION_DOT = .13419E-3
MEAN_MOTION_DDOT = 0

